OBJECT_NAME,OBJECT_ID,EPOCH,MEAN_MOTION,ECCENTRICITY,INCLINATION,RA_OF_ASC_NODE,ARG_OF_PERICENTER,MEAN_ANOMALY,EPHEMERIS_TYPE,CLASSIFICATION_TYPE,NORAD_CAT_ID,ELEMENT_SET_NO,REV_AT_EPOCH,BSTAR,MEAN_MOTION_DOT,MEAN_MOTION_DDOT
LEMUR-2-FINNIAN,2025-276DX,2026-07-21T03:45:09.751104,15.00658169,.00067888,97.5340,272.0921,337.1600,22.9321,0,U,66782,999,2509,.14778487E-3,.1812E-4,0
LEMUR-2-STARLIGHT,2025-276DY,2026-07-22T03:25:54.526944,14.99416887,.00145123,97.5239,272.5886,26.2388,333.9568,0,U,66783,999,3543,.55453521E-3,.6752E-4,0
LEMUR-2-TARTIFLETTE,2025-276DZ,2026-07-22T03:23:43.347552,14.99398491,.00138077,97.5237,272.5950,34.9029,325.3097,0,U,66784,999,3543,.49829685E-3,.6057E-4,0
LEMUR-2-VUKASIN,2025-276EA,2026-07-22T04:09:04.692672,15.00590595,.00019576,97.5198,272.9945,28.6074,331.5258,0,U,66785,999,3539,.43968627E-3,.5497E-4,0
LEMUR-2-HOTSPUR-TOM,2025-276EB,2026-07-22T03:16:20.384256,14.99293391,.00135328,97.5214,272.5614,26.9018,333.2905,0,U,66786,999,3536,.46182107E-3,.5593E-4,0
LEMUR-2-MYRA,2025-276EC,2026-07-22T03:18:39.554784,15.00644021,.00185119,97.5226,272.8816,32.8769,327.3603,0,U,66787,999,3545,.441677E-3,.5548E-4,0
LEMUR-2 FIKRETDENGIZ,2026-004A,2026-07-21T22:58:16.777632,14.88552806,.00097015,97.8036,200.9883,36.3875,323.7999,0,U,67363,999,2845,.4489565E-3,.4126E-4,0
TWILIGHT-1 OBJECT B,2026-004B,2026-07-20T23:43:51.115584,14.87805943,.00093149,97.8078,200.0319,28.9865,331.1867,0,U,67364,999,2831,.12739587E-3,.111E-4,0
LEMUR-2-MARIO-SOUSA,2026-004C,2026-07-22T00:04:40.844064,14.88766843,.00093322,97.8006,201.0285,37.9067,322.2806,0,U,67365,999,2847,.51529913E-3,.477E-4,0
LEMUR-2-SONNENBLUME,2026-004E,2026-07-21T11:16:12.479232,14.88475296,.00090198,97.8005,200.4728,40.2531,319.9352,0,U,67367,999,2839,.22262519E-3,.2014E-4,0
LEMUR-2-WOBLER,2026-004F,2026-07-21T23:53:34.197216,14.88731923,.00089334,97.8057,201.1487,30.4886,329.6849,0,U,67368,999,2847,.43580648E-3,.4021E-4,0
LEMUR-2-GRAM-E-SUE,2026-004H,2026-07-22T06:10:09.662592,14.88612885,.00081807,97.7993,201.2650,41.5679,318.6159,0,U,67370,999,2851,.21551421E-3,.1954E-4,0
LEMUR-2-KATIE,2026-004AA,2026-07-22T00:06:45.419904,14.90291770,.00028568,97.8052,201.5905,16.6721,343.4590,0,U,67387,999,2849,.51102937E-3,.491E-4,0
LEMUR-2-HCS-BAZUS,2026-004AB,2026-07-22T00:04:19.838496,14.90297048,.0002352,97.8040,201.5664,18.3461,341.7841,0,U,67388,999,2849,.43493159E-3,.4171E-4,0
