LEMUR-2-FINNIAN         
1 66782U 25276DX  26202.15636286  .00001812  00000+0  14778-3 0  9991
2 66782  97.5340 272.0921 0006788 337.1600  22.9321 15.00658169 25097
LEMUR-2-STARLIGHT       
1 66783U 25276DY  26203.14299221  .00006752  00000+0  55454-3 0  9990
2 66783  97.5239 272.5886 0014512  26.2388 333.9568 14.99416887 35436
LEMUR-2-TARTIFLETTE     
1 66784U 25276DZ  26203.14147393  .00006057  00000+0  49830-3 0  9992
2 66784  97.5237 272.5950 0013807  34.9029 325.3097 14.99398491 35433
LEMUR-2-VUKASIN         
1 66785U 25276EA  26203.17297098  .00005497  00000+0  43969-3 0  9998
2 66785  97.5198 272.9945 0001957  28.6074 331.5258 15.00590595 35396
LEMUR-2-HOTSPUR-TOM     
1 66786U 25276EB  26203.13634704  .00005593  00000+0  46182-3 0  9991
2 66786  97.5214 272.5614 0013532  26.9018 333.2905 14.99293391 35362
LEMUR-2-MYRA            
1 66787U 25276EC  26203.13795781  .00005548  00000+0  44168-3 0  9997
2 66787  97.5226 272.8816 0018511  32.8769 327.3603 15.00644021 35456
LEMUR-2 FIKRETDENGIZ    
1 67363U 26004A   26202.95713863  .00004126  00000+0  44896-3 0  9997
2 67363  97.8036 200.9883 0009701  36.3875 323.7999 14.88552806 28457
TWILIGHT-1 OBJECT B     
1 67364U 26004B   26201.98878606  .00001110  00000+0  12740-3 0  9990
2 67364  97.8078 200.0319 0009314  28.9865 331.1867 14.87805943 28319
LEMUR-2-MARIO-SOUSA     
1 67365U 26004C   26203.00325051  .00004770  00000+0  51530-3 0  9992
2 67365  97.8006 201.0285 0009332  37.9067 322.2806 14.88766843 28475
LEMUR-2-SONNENBLUME     
1 67367U 26004E   26202.46958888  .00002014  00000+0  22263-3 0  9993
2 67367  97.8005 200.4728 0009019  40.2531 319.9352 14.88475296 28395
LEMUR-2-WOBLER          
1 67368U 26004F   26202.99553469  .00004021  00000+0  43581-3 0  9994
2 67368  97.8057 201.1487 0008933  30.4886 329.6849 14.88731923 28471
LEMUR-2-GRAM-E-SUE      
1 67370U 26004H   26203.25705628  .00001954  00000+0  21551-3 0  9998
2 67370  97.7993 201.2650 0008180  41.5679 318.6159 14.88612885 28514
LEMUR-2-KATIE           
1 67387U 26004AA  26203.00469236  .00004910  00000+0  51103-3 0  9992
2 67387  97.8052 201.5905 0002856  16.6721 343.4590 14.90291770 28491
LEMUR-2-HCS-BAZUS       
1 67388U 26004AB  26203.00300739  .00004171  00000+0  43493-3 0  9997
2 67388  97.8040 201.5664 0002352  18.3461 341.7841 14.90297048 28496
